XRISM                   
1 57800U 23137A   24190.83578857  .00003860  00000+0  28525-3 0  9994
2 57800  31.0017 234.7849 0009487  64.3438 295.8177 15.01453965 45868
